PROGRESS-MS 31          
1 64751U 25146A   25214.48330902  .00009987  00000+0  18089-3 0  9995
2 64751  51.6346  77.6095 0001729 143.7235 216.3872 15.50290623  3957
SHIYAN-28B 01           
1 64753U 25145A   25214.53996448  .00000608  00000+0  68213-4 0  9991
2 64753  10.9980 242.9762 0002821  61.0034 299.0477 14.29203826  4259
CZ-4C R/B               
1 64754U 25145B   25214.38774111  .00000958  00000+0  81819-4 0  9991
2 64754  10.9845 235.0840 0121799  33.7311 327.0607 14.56370297  4265
STARLINK-33965          
1 64755U 25147A   25214.58334491 -.00001948  00000+0 -38784-4 0  9994
2 64755  53.1599 183.9966 0001217  77.1541  12.2093 15.39578763  5274
STARLINK-34371          
1 64756U 25147B   25214.29707077  .00062325  00000+0  11173-2 0  9992
2 64756  53.1601 185.2302 0000785 355.7901   4.3102 15.49371131  5063
STARLINK-34401          
1 64757U 25147C   25214.49040068 -.00269409  00000+0 -51525-2 0  9994
2 64757  53.1601 184.3044 0002698  31.8721 328.2450 15.48474803  5078
STARLINK-34593          
1 64758U 25147D   25214.29637605  .00056979  00000+0  10248-2 0  9993
2 64758  53.1597 185.2245 0001201  87.2364 272.8783 15.49316421  5113
STARLINK-34598          
1 64759U 25147E   25214.29602972  .00021375  00000+0  39148-3 0  9996
2 64759  53.1587 185.2203 0001224 110.3658 249.7483 15.49297490  5064
STARLINK-34235          
1 64760U 25147F   25214.58334491  .00002843  00000+0  81077-4 0  9996
2 64760  53.1596 183.9446 0001307  70.0828  45.0836 15.39604001  5274
STARLINK-34635          
1 64761U 25147G   25214.58334491 -.01598976  00000+0 -37926-1 0  9998
2 64761  53.1591 183.8653 0001318  57.9757  97.0952 15.44401582  5233
STARLINK-34638          
1 64762U 25147H   25214.29500251  .00057440  00000+0  10324-2 0  9993
2 64762  53.1593 185.2159 0001519  55.2449 304.8703 15.49331964  5116
STARLINK-34534          
1 64763U 25147J   25214.29465839  .00075432  00000+0  13500-2 0  9996
2 64763  53.1597 185.2126 0001150 100.8351 259.2788 15.49335633  5118
STARLINK-34261          
1 64764U 25147K   25214.16528119  .00097938  00000+0  17453-2 0  9990
2 64764  53.1602 185.8272 0001058  45.4402 314.6694 15.49336585  5133
STARLINK-34566          
1 64765U 25147L   25214.42298752  .00056187  00000+0  10103-2 0  9993
2 64765  53.1597 184.5914 0001205  93.3678 266.7468 15.49329881  5134
STARLINK-34645          
1 64766U 25147M   25214.29363018  .00068891  00000+0  12349-2 0  9996
2 64766  53.1603 185.2093 0001520  81.5569 278.5612 15.49329848  5110
STARLINK-34639          
1 64767U 25147N   25214.29328556  .00051533  00000+0  92794-3 0  9993
2 64767  53.1600 185.2036 0001432  84.5094 275.6078 15.49326668  5068
STARLINK-34609          
1 64768U 25147P   25214.29294173  .00088772  00000+0  15855-2 0  9998
2 64768  53.1601 185.2012 0001280  85.0670 275.0485 15.49319703  5115
STARLINK-34246          
1 64769U 25147Q   25214.58334491 -.00731257  00000+0 -19505-1 0  9999
2 64769  53.1593 183.8885 0000754  45.4972  97.0265 15.40087534  5234
STARLINK-34618          
1 64770U 25147R   25214.58334491  .00001457  00000+0  46438-4 0  9999
2 64770  53.1595 183.9397 0001029  81.1065  35.8655 15.39582289  5129
STARLINK-34541          
1 64771U 25147S   25214.58334491 -.01608910  00000+0 -37072-1 0  9991
2 64771  53.1588 183.8181 0001536  68.4176 109.7177 15.45262308  5119
STARLINK-34652          
1 64772U 25147T   25214.48524931 -.00239880  00000+0 -45752-2 0  9991
2 64772  53.1597 184.2675 0001852 179.3640 180.7371 15.48444651  5146
STARLINK-34612          
1 64773U 25147U   25214.58334491 -.01482492  00000+0 -37580-1 0  9992
2 64773  53.1591 183.8432 0001301  51.8532 113.1457 15.42207896  5237
STARLINK-34621          
1 64774U 25147V   25214.29088089  .00055977  00000+0  10069-2 0  9995
2 64774  53.1598 185.1918 0001302  95.6461 264.4697 15.49320583  5048
STARLINK-34657          
1 64775U 25147W   25214.16151904  .00057652  00000+0  10364-2 0  9999
2 64775  53.1601 185.8019 0000793  79.2798 280.8301 15.49325324  5094
STARLINK-34637          
1 64776U 25147X   25214.35470455  .00101317  00000+0  18042-2 0  9995
2 64776  53.1597 184.8768 0001557  44.5503 315.5631 15.49340238  5056
STARLINK-34547          
1 64777U 25147Y   25214.22534319  .00077048  00000+0  13794-2 0  9994
2 64777  53.1596 185.4881 0001803  46.0783 314.0374 15.49315646  5053
STARLINK-34537          
1 64778U 25147Z   25214.18335761  .00355270  00000+0  19321-2 0  9998
2 64778  53.1547 183.7479 0001255  90.8106 269.3060 15.78443806  5169
STARLINK-34585          
1 64779U 25147AA  25214.22465563  .00095705  00000+0  17068-2 0  9998
2 64779  53.1605 185.4827 0001654  44.2079 315.9062 15.49325934  5053
STARLINK-34491          
1 64780U 25147AB  25214.15980280  .00061652  00000+0  11070-2 0  9991
2 64780  53.1599 185.7891 0001127  54.3907 305.7207 15.49330083  5091
STARLINK-34582          
1 64781U 25147AC  25214.28847690  .00082911  00000+0  14824-2 0  9994
2 64781  53.1599 185.1695 0001328  89.5496 270.5665 15.49320890  5041
STARLINK-34482          
1 64782U 25147AD  25214.15911531  .00079197  00000+0  14162-2 0  9994
2 64782  53.1601 185.7889 0001111  72.0608 288.0522 15.49337678  5137
CZ-4C DEB               
1 64783U 25145C   25213.18754734  .00107129  00000+0  43149-1 0  9998
2 64783  10.9905 253.4541 0031539 149.4413 210.7657 14.25907674  3326
DROR 1                  
1 64784U 25148A   25214.26069453 -.00000056  00000+0  00000+0 0  9998
2 64784   0.0425 282.1457 0009470 285.5970 194.4764  1.00043420    95
TIANZHOU-9              
1 64786U 25149A   25214.60370465  .00022514  00000+0  30198-3 0  9994
2 64786  41.4647  99.3629 0004985  45.9132 314.2115 15.57407586  2699
STARLINK-34629          
1 64790U 25150A   25214.58334491 -.01401576  00000+0 -14421-1 0  9998
2 64790  70.0053 351.0880 0004063 271.9177  81.5398 15.67684433  4000
STARLINK-34697          
1 64791U 25150B   25214.58334491 -.01404501  00000+0 -14454-1 0  9996
2 64791  70.0053 351.0857 0004056 272.8804  82.4919 15.67686213  4001
STARLINK-34632          
1 64792U 25150C   25214.58334491 -.01401988  00000+0 -14427-1 0  9993
2 64792  70.0053 351.0834 0003943 270.6914  86.5992 15.67684084  4009
STARLINK-34693          
1 64793U 25150D   25214.58334491 -.01402386  00000+0 -14432-1 0  9993
2 64793  70.0053 351.0810 0003890 274.3505  84.8551 15.67684210  4005
STARLINK-34666          
1 64794U 25150E   25214.58334491 -.01404022  00000+0 -14450-1 0  9993
2 64794  70.0052 351.0788 0003928 273.1485  87.9737 15.67685377  4000
STARLINK-34567          
1 64795U 25150F   25214.58334491 -.01403246  00000+0 -14441-1 0  9991
2 64795  70.0053 351.0765 0003978 273.3544  89.6847 15.67684635  4007
STARLINK-34646          
1 64796U 25150G   25214.58334491 -.01403555  00000+0 -14444-1 0  9998
2 64796  70.0052 351.0742 0003974 271.0981  93.8573 15.67685686  4008
STARLINK-34641          
1 64797U 25150H   25214.58334491 -.01364998  00000+0 -14011-1 0  9996
2 64797  70.0001 351.0712 0003811 272.4573  94.4184 15.67664455  3940
STARLINK-34649          
1 64798U 25150J   25214.58334491 -.01399925  00000+0 -14404-1 0  9991
2 64798  70.0054 351.0697 0003792 273.7937  94.9942 15.67684572  4004
STARLINK-34662          
1 64799U 25150K   25214.58334491 -.01400647  00000+0 -14412-1 0  9995
2 64799  70.0054 351.0674 0003789 271.8523  98.8530 15.67685264  4001
STARLINK-34660          
1 64800U 25150L   25214.58334491 -.01399063  00000+0 -14393-1 0  9995
2 64800  70.0054 351.0652 0003932 274.7322  97.8895 15.67684287  3094
STARLINK-34604          
1 64801U 25150M   25214.58334491 -.01368296  00000+0 -14049-1 0  9998
2 64801  69.9999 351.0621 0003706 271.9894 102.5521 15.67666033  3097
STARLINK-34658          
1 64802U 25150N   25214.58334491 -.01371781  00000+0 -14089-1 0  9996
2 64802  69.9997 351.0598 0003587 271.9729 104.4845 15.67668123  3095
STARLINK-34620          
1 64803U 25150P   25214.58334491 -.01370364  00000+0 -14073-1 0  9996
2 64803  69.9996 351.0571 0003686 273.9719 104.4036 15.67666127  4003
STARLINK-34633          
1 64804U 25150Q   25214.58334491 -.01369963  00000+0 -14067-1 0  9993
2 64804  70.0003 351.0551 0003824 272.5552 107.7362 15.67666615  3096
STARLINK-34624          
1 64805U 25150R   25214.58334491 -.01364496  00000+0 -14007-1 0  9994
2 64805  70.0001 351.0481 0003623 271.3842 114.6575 15.67663862  3097
STARLINK-34664          
1 64806U 25150S   25214.58334491 -.01370253  00000+0 -14070-1 0  9993
2 64806  70.0003 351.0527 0003791 273.8643 108.3419 15.67667677  3098
STARLINK-34663          
1 64807U 25150T   25214.58334491 -.01325579  00000+0 -13579-1 0  9998
2 64807  70.0000 351.0502 0003691 276.3058 107.8434 15.67627532  3093
STARLINK-34696          
1 64808U 25150U   25214.58334491 -.01369885  00000+0 -14067-1 0  9990
2 64808  70.0002 351.0457 0003724 271.0527 116.9051 15.67666413  4004
STARLINK-34675          
1 64809U 25150V   25214.58334491 -.01370168  00000+0 -14069-1 0  9999
2 64809  70.0003 351.0435 0003895 271.8949 117.9797 15.67666294  3090
STARLINK-34608          
1 64810U 25150W   25214.58334491 -.01363389  00000+0 -13994-1 0  9994
2 64810  70.0001 351.0410 0003673 271.3685 120.4224 15.67663576  3093
STARLINK-34669          
1 64811U 25150X   25214.58334491 -.01362210  00000+0 -13981-1 0  9993
2 64811  70.0001 351.0388 0003659 273.0990 120.6085 15.67662702  3097
STARLINK-34644          
1 64812U 25150Y   25214.58334491 -.01363183  00000+0 -13992-1 0  9996
2 64812  69.9998 351.0366 0003688 270.1904 125.4345 15.67662705  3096
STARLINK-34685          
1 64813U 25150Z   25214.58334491 -.01369362  00000+0 -14060-1 0  9999
2 64813  69.9997 351.0344 0003848 272.4513 125.0891 15.67666372  3097
STARLINK-34668          
1 64814U 25150AA  25214.58334491 -.01365042  00000+0 -14013-1 0  9999
2 64814  70.0002 351.0299 0003638 269.6685 131.7048 15.67664197  3093
